[
    {
        "Altitude(m)": 624790.8354668211,
        "Argument of Periapsis(deg)": 0.0,
        "Eccentricity": 0.0,
        "Inclination(deg)": 60.0,
        "Latitude(deg)": -59.14723808495783,
        "Longitude(deg)": -58.965308118412004,
        "Mean Anomaly(deg)": -81.81820000000003,
        "RAAN(deg)": 114.99999999999999,
        "Satellite Name": "Test1 523",
        "Satellite Number": 523,
        "Semi-Major Axis(m)": 6980739.136638005,
        "Time(s)": 0
    },
    {
        "Altitude(m)": 624737.4903106558,
        "Argument of Periapsis(deg)": 0.00010418945913296404,
        "Eccentricity": 0.0,
        "Inclination(deg)": 60.0,
        "Latitude(deg)": -58.99469220296875,
        "Longitude(deg)": -57.84580264716174,
        "Mean Anomaly(deg)": -81.19809385453819,
        "RAAN(deg)": 114.99957995086024,
        "Satellite Name": "Test1 523",
        "Satellite Number": 523,
        "Semi-Major Axis(m)": 6980739.136638005,
        "Time(s)": 10
    }
]